{"type": "FeatureCollection", "features": [ {"type": "Feature", "properties": {"norad_id": 33917, "name": "COSMOS 2251 DEB", "group": "cosmos-2251-debris", "lat": -43.00836064464241, "lon": -56.0083831995143, "alt_km": 774.0315879234031, "timestamp": "2025-12-21T03:56:51.225953+00:00", "meta": {"OBJECT_NAME": "COSMOS 2251 DEB", "OBJECT_ID": "1993-036DW", "EPOCH": "2025-12-20T09:18:54.626400", "MEAN_MOTION": 13.69374091, "ECCENTRICITY": 0.03312792, "INCLINATION": 74.1072, "RA_OF_ASC_NODE": 109.8528, "ARG_OF_PERICENTER": 209.1496, "MEAN_ANOMALY": 149.0776, "EPHEMERIS_TYPE": 0, "CLASSIFICATION_TYPE": "U", "NORAD_CAT_ID": 33917, "ELEMENT_SET_NO": 999, "REV_AT_EPOCH": 83838, "BSTAR": 0.00061402053, "MEAN_MOTION_DOT": 7.62e-06, "MEAN_MOTION_DDOT": 0}, "tle": {"line1": "1 33917U 93036DW  25354.38813225  .00000762  00000+0  61402-3 0  9995", "line2": "2 33917  74.1072 109.8528 0331279 209.1496 149.0776 13.69374091838382"}}, "geometry": {"type": "Point", "coordinates": [-56.0083831995143, -43.00836064464241]}}, {"type": "Feature", "properties": {"norad_id": 33920, "name": "COSMOS 2251 DEB", "group": "cosmos-2251-debris", "lat": 54.61220643446489, "lon": 78.6956455933588, "alt_km": 718.8637095050062, "timestamp": "2025-12-21T03:56:51.225962+00:00", "meta": {"OBJECT_NAME": "COSMOS 2251 DEB", "OBJECT_ID": "1993-036DZ", "EPOCH": "2025-12-20T19:09:22.854816", "MEAN_MOTION": 14.58389713, "ECCENTRICITY": 0.0037934, "INCLINATION": 74.062, "RA_OF_ASC_NODE": 283.1128, "ARG_OF_PERICENTER": 288.5464, "MEAN_ANOMALY": 71.1581, "EPHEMERIS_TYPE": 0, "CLASSIFICATION_TYPE": "U", "NORAD_CAT_ID": 33920, "ELEMENT_SET_NO": 999, "REV_AT_EPOCH": 88232, "BSTAR": 0.0010348, "MEAN_MOTION_DOT": 4.816e-05, "MEAN_MOTION_DDOT": 0}, "tle": {"line1": "1 33920U 93036DZ  25354.79818119  .00004816  00000+0  10348-2 0  9997", "line2": "2 33920  74.0620 283.1128 0037934 288.5464  71.1581 14.58389713882321"}}, "geometry": {"type": "Point", "coordinates": [78.6956455933588, 54.61220643446489]}}, {"type": "Feature", "properties": {"norad_id": 33922, "name": "COSMOS 2251 DEB", "group": "cosmos-2251-debris", "lat": -3.025597044575063, "lon": 131.10049878377484, "alt_km": 737.2238019795541, "timestamp": "2025-12-21T03:56:51.225972+00:00", "meta": {"OBJECT_NAME": "COSMOS 2251 DEB", "OBJECT_ID": "1993-036EB", "EPOCH": "2025-12-20T20:25:31.253088", "MEAN_MOTION": 14.49533448, "ECCENTRICITY": 0.0023182, "INCLINATION": 74.0467, "RA_OF_ASC_NODE": 132.5543, "ARG_OF_PERICENTER": 242.2195, "MEAN_ANOMALY": 279.6206, "EPHEMERIS_TYPE": 0, "CLASSIFICATION_TYPE": "U", "NORAD_CAT_ID": 33922, "ELEMENT_SET_NO": 999, "REV_AT_EPOCH": 88695, "BSTAR": 0.00032538, "MEAN_MOTION_DOT": 1.224e-05, "MEAN_MOTION_DDOT": 0}, "tle": {"line1": "1 33922U 93036EB  25354.85105617  .00001224  00000+0  32538-3 0  9994", "line2": "2 33922  74.0467 132.5543 0023182 242.2195 279.6206 14.49533448886956"}}, "geometry": {"type": "Point", "coordinates": [131.10049878377484, -3.025597044575063]}}, {"type": "Feature", "properties": {"norad_id": 33924, "name": "COSMOS 2251 DEB", "group": "cosmos-2251-debris", "lat": 23.788384301785687, "lon": 69.35247437909389, "alt_km": 1279.0373190523824, "timestamp": "2025-12-21T03:56:51.225981+00:00", "meta": {"OBJECT_NAME": "COSMOS 2251 DEB", "OBJECT_ID": "1993-036ED", "EPOCH": "2025-12-20T04:01:45.333120", "MEAN_MOTION": 13.50234434, "ECCENTRICITY": 0.04038874, "INCLINATION": 73.9134, "RA_OF_ASC_NODE": 258.2614, "ARG_OF_PERICENTER": 292.4064, "MEAN_ANOMALY": 63.4727, "EPHEMERIS_TYPE": 0, "CLASSIFICATION_TYPE": "U", "NORAD_CAT_ID": 33924, "ELEMENT_SET_NO": 999, "REV_AT_EPOCH": 82839, "BSTAR": 0.00039421552, "MEAN_MOTION_DOT": 3.93e-06, "MEAN_MOTION_DDOT": 0}, "tle": {"line1": "1 33924U 93036ED  25354.16788580  .00000393  00000+0  39422-3 0  9991", "line2": "2 33924  73.9134 258.2614 0403887 292.4064  63.4727 13.50234434828393"}}, "geometry": {"type": "Point", "coordinates": [69.35247437909389, 23.788384301785687]}}, {"type": "Feature", "properties": {"norad_id": 33928, "name": "COSMOS 2251 DEB", "group": "cosmos-2251-debris", "lat": 41.12908661373761, "lon": -157.8799218026839, "alt_km": 773.425017207478, "timestamp": "2025-12-21T03:56:51.225990+00:00", "meta": {"OBJECT_NAME": "COSMOS 2251 DEB", "OBJECT_ID": "1993-036EH", "EPOCH": "2025-12-20T12:23:17.034432", "MEAN_MOTION": 14.47417403, "ECCENTRICITY": 0.0061856, "INCLINATION": 73.9255, "RA_OF_ASC_NODE": 37.9239, "ARG_OF_PERICENTER": 330.4254, "MEAN_ANOMALY": 29.341, "EPHEMERIS_TYPE": 0, "CLASSIFICATION_TYPE": "U", "NORAD_CAT_ID": 33928, "ELEMENT_SET_NO": 999, "REV_AT_EPOCH": 88757, "BSTAR": 0.00017211, "MEAN_MOTION_DOT": 6.17e-06, "MEAN_MOTION_DDOT": 0}, "tle": {"line1": "1 33928U 93036EH  25354.51616938  .00000617  00000+0  17211-3 0  9992", "line2": "2 33928  73.9255  37.9239 0061856 330.4254  29.3410 14.47417403887577"}}, "geometry": {"type": "Point", "coordinates": [-157.8799218026839, 41.12908661373761]}}, {"type": "Feature", "properties": {"norad_id": 33932, "name": "COSMOS 2251 DEB", "group": "cosmos-2251-debris", "lat": 11.411002020185686, "lon": -56.30777763094062, "alt_km": 738.0646179696569, "timestamp": "2025-12-21T03:56:51.225999+00:00", "meta": {"OBJECT_NAME": "COSMOS 2251 DEB", "OBJECT_ID": "1993-036EM", "EPOCH": "2025-12-20T06:11:57.074208", "MEAN_MOTION": 14.38778348, "ECCENTRICITY": 0.00357129, "INCLINATION": 74.0341, "RA_OF_ASC_NODE": 302.0503, "ARG_OF_PERICENTER": 16.3831, "MEAN_ANOMALY": 343.8468, "EPHEMERIS_TYPE": 0, "CLASSIFICATION_TYPE": "U", "NORAD_CAT_ID": 33932, "ELEMENT_SET_NO": 999, "REV_AT_EPOCH": 88106, "BSTAR": 0.00034488754, "MEAN_MOTION_DOT": 1.041e-05, "MEAN_MOTION_DDOT": 0}, "tle": {"line1": "1 33932U 93036EM  25354.25829947  .00001041  00000+0  34489-3 0  9992", "line2": "2 33932  74.0341 302.0503 0035712  16.3831 343.8468 14.38778348881066"}}, "geometry": {"type": "Point", "coordinates": [-56.30777763094062, 11.411002020185686]}}, {"type": "Feature", "properties": {"norad_id": 33933, "name": "COSMOS 2251 DEB", "group": "cosmos-2251-debris", "lat": 56.90493639639819, "lon": 70.73687356578952, "alt_km": 724.2390130711501, "timestamp": "2025-12-21T03:56:51.226008+00:00", "meta": {"OBJECT_NAME": "COSMOS 2251 DEB", "OBJECT_ID": "1993-036EN", "EPOCH": "2025-12-20T04:13:15.585312", "MEAN_MOTION": 14.33499387, "ECCENTRICITY": 0.00708922, "INCLINATION": 74.0891, "RA_OF_ASC_NODE": 46.5839, "ARG_OF_PERICENTER": 52.7662, "MEAN_ANOMALY": 307.9929, "EPHEMERIS_TYPE": 0, "CLASSIFICATION_TYPE": "U", "NORAD_CAT_ID": 33933, "ELEMENT_SET_NO": 999, "REV_AT_EPOCH": 87891, "BSTAR": 0.00018603773, "MEAN_MOTION_DOT": 5.04e-06, "MEAN_MOTION_DDOT": 0}, "tle": {"line1": "1 33933U 93036EN  25354.17587483  .00000504  00000+0  18604-3 0  9994", "line2": "2 33933  74.0891  46.5839 0070892  52.7662 307.9929 14.33499387878914"}}, "geometry": {"type": "Point", "coordinates": [70.73687356578952, 56.90493639639819]}}, {"type": "Feature", "properties": {"norad_id": 33934, "name": "COSMOS 2251 DEB", "group": "cosmos-2251-debris", "lat": -51.46378977196852, "lon": -74.41931963702928, "alt_km": 692.6924786128466, "timestamp": "2025-12-21T03:56:51.226017+00:00", "meta": {"OBJECT_NAME": "COSMOS 2251 DEB", "OBJECT_ID": "1993-036EP", "EPOCH": "2025-12-20T15:21:31.140864", "MEAN_MOTION": 14.5916745, "ECCENTRICITY": 0.0015357, "INCLINATION": 74.0383, "RA_OF_ASC_NODE": 85.5194, "ARG_OF_PERICENTER": 209.3264, "MEAN_ANOMALY": 150.704, "EPHEMERIS_TYPE": 0, "CLASSIFICATION_TYPE": "U", "NORAD_CAT_ID": 33934, "ELEMENT_SET_NO": 999, "REV_AT_EPOCH": 88854, "BSTAR": 0.00054829, "MEAN_MOTION_DOT": 2.559e-05, "MEAN_MOTION_DDOT": 0}, "tle": {"line1": "1 33934U 93036EP  25354.63994376  .00002559  00000+0  54829-3 0  9990", "line2": "2 33934  74.0383  85.5194 0015357 209.3264 150.7040 14.59167450888540"}}, "geometry": {"type": "Point", "coordinates": [-74.41931963702928, -51.46378977196852]}}, {"type": "Feature", "properties": {"norad_id": 33936, "name": "COSMOS 2251 DEB", "group": "cosmos-2251-debris", "lat": -16.801972170990556, "lon": -153.6529895173492, "alt_km": 679.044116392959, "timestamp": "2025-12-21T03:56:51.226027+00:00", "meta": {"OBJECT_NAME": "COSMOS 2251 DEB", "OBJECT_ID": "1993-036ER", "EPOCH": "2025-12-20T12:14:59.457696", "MEAN_MOTION": 14.60314226, "ECCENTRICITY": 0.0027004, "INCLINATION": 74.0178, "RA_OF_ASC_NODE": 22.632, "ARG_OF_PERICENTER": 176.2974, "MEAN_ANOMALY": 183.8397, "EPHEMERIS_TYPE": 0, "CLASSIFICATION_TYPE": "U", "NORAD_CAT_ID": 33936, "ELEMENT_SET_NO": 999, "REV_AT_EPOCH": 89003, "BSTAR": 0.00039954, "MEAN_MOTION_DOT": 1.91e-05, "MEAN_MOTION_DDOT": 0}, "tle": {"line1": "1 33936U 93036ER  25354.51041039  .00001910  00000+0  39954-3 0  9990", "line2": "2 33936  74.0178  22.6320 0027004 176.2974 183.8397 14.60314226890035"}}, "geometry": {"type": "Point", "coordinates": [-153.6529895173492, -16.801972170990556]}}, {"type": "Feature", "properties": {"norad_id": 33938, "name": "COSMOS 2251 DEB", "group": "cosmos-2251-debris", "lat": 2.062866598294793, "lon": -167.962547605963, "alt_km": 738.2773911539753, "timestamp": "2025-12-21T03:56:51.226036+00:00", "meta": {"OBJECT_NAME": "COSMOS 2251 DEB", "OBJECT_ID": "1993-036ET", "EPOCH": "2025-12-20T19:42:52.161120", "MEAN_MOTION": 14.46815132, "ECCENTRICITY": 0.0016832, "INCLINATION": 74.0437, "RA_OF_ASC_NODE": 192.0873, "ARG_OF_PERICENTER": 273.5665, "MEAN_ANOMALY": 102.4671, "EPHEMERIS_TYPE": 0, "CLASSIFICATION_TYPE": "U", "NORAD_CAT_ID": 33938, "ELEMENT_SET_NO": 999, "REV_AT_EPOCH": 88517, "BSTAR": 0.0002822, "MEAN_MOTION_DOT": 9.97e-06, "MEAN_MOTION_DDOT": 0}, "tle": {"line1": "1 33938U 93036ET  25354.82143705  .00000997  00000+0  28220-3 0  9997", "line2": "2 33938  74.0437 192.0873 0016832 273.5665 102.4671 14.46815132885172"}}, "geometry": {"type": "Point", "coordinates": [-167.962547605963, 2.062866598294793]}}]}